0 FENGYUN 1C DEB
1 33636U 99025DDV 13281.24280387  .00000889  00000-0  42292-3 0  2535
2 33636 098.8690 293.9372 0078185 053.4109 007.1687 14.20317397282827
0 FENGYUN 1C DEB
1 33636U 99025DDV 13283.28507181  .00000965  00000-0  45749-3 0  2541
2 33636 098.8687 295.9851 0078060 047.5899 009.5525 14.20324640283118
0 FENGYUN 1C DEB
1 33636U 99025DDV 13285.83391554  .00000997  00000-0  47191-3 0  2558
2 33636 098.8682 298.5411 0077920 040.3097 082.2025 14.20329053283474
0 FENGYUN 1C DEB
1 33636U 99025DDV 13289.27251826  .00001118  00000-0  52718-3 0  2565
2 33636 098.8678 301.9888 0077698 030.4642 024.4333 14.20339537283966
0 FENGYUN 1C DEB
1 33636U 99025DDV 13291.89153074  .00001253  00000-0  58838-3 0  2572
2 33636 098.8679 304.6146 0077569 022.9550 096.0443 14.20344663284330
0 FENGYUN 1C DEB
1 33636U 99025DDV 13294.85052204  .00001393  00000-0  65163-3 0  2589
2 33636 098.8682 307.5815 0077390 014.4600 106.1224 14.20352372284755
